KUIPER-00028            
1 63741U 25088T   26062.34902528  .00002714  00000+0  38434-3 0  9991
2 63741  51.9011 121.0925 0000617  81.5273 278.5759 14.79990377 47123
KUIPER-00029            
1 63742U 25088U   26062.36552637  .00006375  00000+0  79265-3 0  9990
2 63742  51.9014 118.7061 0000712 101.3036 258.8008 14.83590941 46681
KUIPER-00030            
1 63743U 25088V   26062.49900963  .00007308  00000+0  98530-3 0  9997
2 63743  51.9007 137.9212 0010588  52.1358 308.0561 14.79964419 46713
KUIPER-00031            
1 63744U 25088W   26062.37262315  .00006680  00000+0  82937-3 0  9993
2 63744  51.8995 123.7875 0002267 125.3116 234.8060 14.83587534 46610
KUIPER-00032            
1 63745U 25088X   26062.36219309  .00018585  00000+0  51372-3 0  9994
2 63745  51.8703  54.8135 0005289  90.3589 269.8003 15.37063490 48575
KUIPER-00033            
1 63746U 25088Y   26062.49104823  .00006945  00000+0  86536-3 0  9990
2 63746  51.9011 153.4187 0000788  44.8800 315.2228 14.83380189 46694
KUIPER-00034            
1 63747U 25088Z   26062.44645968  .00006185  00000+0  77089-3 0  9995
2 63747  51.9011 115.9571 0001751 335.6172  24.4709 14.83539495 46890
KUIPER-00035            
1 63748U 25088AA  26062.50001156 -.00011771  00000+0 -14016-2 0  9997
2 63748  51.8992 141.3840 0004004  56.9293  27.1367 14.83217464  2869
KUIPER-00037            
1 63749U 25088AB  26062.42876311  .00006725  00000+0  91146-3 0  9993
2 63749  51.9001 140.7464 0000714  34.8544 325.2465 14.79874526 47385
KUIPER-00038            
1 63750U 25088AC  26062.37745376  .00006090  00000+0  82759-3 0  9990
2 63750  51.9017 126.0027 0000183 133.4089 226.6889 14.79909141 46583
KUIPER-00039            
1 64500U 25134A   26062.48518080  .00004307  00000+0  59374-3 0  9994
2 64500  51.8999 260.5290 0001033  61.9751 298.1316 14.79921532 39159
KUIPER-00040            
1 64501U 25134B   26061.99993282  .00005296  00000+0  72254-3 0  9991
2 64501  51.8989 273.8116 0013687 242.5964 117.3606 14.79932074 38925
KUIPER-00041            
1 64502U 25134C   26061.80050375  .00003886  00000+0  55430-3 0  9999
2 64502  51.8985 276.0926 0007089 241.9402 118.0844 14.78691298 38870
KUIPER-00042            
1 64503U 25134D   26062.00256175 -.00005039  00000+0 -63289-3 0  9994
2 64503  51.8989 271.1637 0007388 257.3465 102.6672 14.79872098 38960
KUIPER-00043            
1 64504U 25134E   26061.92789374  .00004652  00000+0  58344-3 0  9991
2 64504  51.9000 263.1025 0000892 311.7049  48.3838 14.83778187 39076
KUIPER-00044            
1 64505U 25134F   26061.99717478  .00022267  00000+0  29357-2 0  9998
2 64505  51.8983 276.1858 0007889 252.6055 107.4045 14.79979669 38896
KUIPER-00046            
1 64506U 25134G   26062.00151159  .00004140  00000+0  57168-3 0  9992
2 64506  51.8971 272.6277 0000741 107.2004 252.9039 14.79933784 38942
